{"epoch":1784838743,"count":18315,"objects":[{"id":"28051","name":"IRS P6","type":"PAYLOAD","l1":"1 28051U 03046A   26204.61467071  .00000104  00000-0  48684-4 0  9994","l2":"2 28051  98.1895 239.3427 0062991 232.1942 285.5904 14.36172738185759"},{"id":"28371","name":"SAUDISAT 2","type":"PAYLOAD","l1":"1 28371U 04025F   26204.22802914  .00000212  00000-0  58424-4 0  9996","l2":"2 28371  98.5526 205.1444 0024593 183.1701 176.9344 14.56701476170993"},{"id":"28380","name":"COSMOS 2407","type":"PAYLOAD","l1":"1 28380U 04028A   26204.13615417  .00000045  00000-0  30392-4 0  9997","l2":"2 28380  82.9583  48.2030 0039863 150.0834 330.9561 13.76336989104822"},{"id":"28521","name":"COSMOS 2414","type":"PAYLOAD","l1":"1 28521U 05002A   26204.43807757  .00000080  00000-0  54018-4 0  9990","l2":"2 28521  82.9495  16.2180 0039139 224.5922 135.2092 13.87929103 88849"},{"id":"28628","name":"INMARSAT 4-F1","type":"PAYLOAD","l1":"1 28628U 05009A   26204.41780730  .00000034  00000-0  00000-0 0  9991","l2":"2 28628   5.2179  42.7945 0002876  77.2326 149.6392  1.00273436 78031"},{"id":"28650","name":"HAMSAT","type":"PAYLOAD","l1":"1 28650U 05017B   26204.04202511  .00003706  00000-0  23167-3 0  9991","l2":"2 28650  97.9904 228.6383 0017326 275.2296  84.6955 15.10004154152179"},{"id":"28654","name":"NOAA 18","type":"PAYLOAD","l1":"1 28654U 05018A   26204.57080541  .00000032  00000-0  40228-4 0  9998","l2":"2 28654  98.8103 283.7184 0015037  50.8962 309.3545 14.13735166 91450"},{"id":"28737","name":"SJ-7","type":"PAYLOAD","l1":"1 28737U 05024A   26204.05775452  .00007757  00000-0  34196-3 0  9999","l2":"2 28737  97.7277 235.1358 0013624 265.8795  94.0883 15.22016030153486"},{"id":"28895","name":"CUBESAT XI 5","type":"PAYLOAD","l1":"1 28895U 05043F   26202.37477685  .00000932  00000-0  15414-3 0  9995","l2":"2 28895  98.3024 358.7230 0015344  97.2573 263.0378 14.72712744106788"},{"id":"29107","name":"CLOUDSAT","type":"PAYLOAD","l1":"1 29107U 06016A   26204.56738101  .00000804  00000-0  97833-4 0  9993","l2":"2 29107  98.3911 243.8723 0004663 200.3552 159.7476 14.86456683 79913"},{"id":"29108","name":"CALIPSO","type":"PAYLOAD","l1":"1 29108U 06016B   26204.59241521  .00000701  00000-0  12736-3 0  9996","l2":"2 29108  98.4473 221.4983 0001580 108.0409 252.0968 14.69411509 78403"},{"id":"29479","name":"HINODE (SOLAR B)","type":"PAYLOAD","l1":"1 29479U 06041A   26204.02222696  .00000547  00000-0  10227-3 0  9996","l2":"2 29479  98.0548 219.6469 0017684 169.5910 190.5665 14.68665420 60135"},{"id":"29499","name":"METOP-A","type":"PAYLOAD","l1":"1 29499U 06044A   26204.46434125  .00000800  00000-0  99047-4 0  9991","l2":"2 29499  98.3353 312.3107 0172631 313.9985 122.5466 14.76058682 30805"},{"id":"29506","name":"SHIJIAN 6 02B (SJ-6 02B)","type":"PAYLOAD","l1":"1 29506U 06046B   26204.60131924  .00001064  00000-0  86989-4 0  9993","l2":"2 29506  97.7145 233.4336 0012443 305.5461  54.4603 15.01448778 76201"},{"id":"29522","name":"DMSP 5D-3 F17 (USA 191)","type":"PAYLOAD","l1":"1 29522U 06050A   26204.58595150  .00000027  00000-0  36586-4 0  9994","l2":"2 29522  98.7392 210.4132 0009273 317.5244  42.5211 14.14996790 17575"},{"id":"29709","name":"LAPAN-TUBSAT","type":"PAYLOAD","l1":"1 29709U 07001A   26204.61645749  .00000422  00000-0  54839-4 0  9992","l2":"2 29709  98.1364 204.6650 0013569  69.5883 290.6788 14.85981373 56567"},{"id":"31113","name":"HAIYANG 1B","type":"PAYLOAD","l1":"1 31113U 07010A   26204.36335632  .00000082  00000-0  46813-4 0  9998","l2":"2 31113  98.3523 184.8103 0014826  93.6361 266.6519 14.31034891  5818"},{"id":"31115","name":"BEIDOU 2","type":"PAYLOAD","l1":"1 31115U 07011A   26201.64567108  .00000051  00000-0  00000-0 0  9994","l2":"2 31115  50.9225 218.1656 0002111 328.6539  31.3669  1.77349452 76740"},{"id":"31130","name":"CAPE 1","type":"PAYLOAD","l1":"1 31130U 07012P   26204.16578756  .00001140  00000-0  21260-3 0  9997","l2":"2 31130  98.4488 179.6311 0082459 319.7294  39.7819 14.64969233 23629"},{"id":"32062","name":"CBERS 2B","type":"PAYLOAD","l1":"1 32062U 07042A   26204.34755128  .00000163  00000-0  63221-4 0  9993","l2":"2 32062  98.3932 148.3692 0029990 224.4307 251.8530 14.41491536989898"},{"id":"32376","name":"SKYMED 2","type":"PAYLOAD","l1":"1 32376U 07059A   26204.61674472  .00000377  00000-0  53857-4 0  9992","l2":"2 32376  97.8898  27.6885 0001480  93.9786 266.1596 14.82155720  7404"},{"id":"32783","name":"CARTOSAT 2A","type":"PAYLOAD","l1":"1 32783U 08021A   26204.57344509  .00001160  00000-0  16255-3 0  9995","l2":"2 32783  97.7617 252.0367 0011759   1.3385 358.7856 14.79285669984189"},{"id":"32785","name":"CUTE-1.7+APD 2","type":"PAYLOAD","l1":"1 32785U 08021C   26204.50585221  .00005372  00000-0  33682-3 0  9990","l2":"2 32785  97.8296 186.6930 0006981 264.2054  95.8378 15.09754568990679"},{"id":"32791","name":"SEEDS","type":"PAYLOAD","l1":"1 32791U 08021J   26204.41936485  .00018972  00000-0  58050-3 0  9995","l2":"2 32791  97.7535 204.0816 0003921 140.5450 219.6077 15.33884906992846"},{"id":"32953","name":"YUBELEINY","type":"PAYLOAD","l1":"1 32953U 08025A   26204.55503688 -.00000042  00000-0 -37416-3 0  9993","l2":"2 32953  82.5067 332.8178 0018844 229.8223 130.1208 12.43180774824216"},{"id":"32958","name":"FENGYUN 3A","type":"PAYLOAD","l1":"1 32958U 08026A   26204.55770246  .00000047  00000-0  43044-4 0  9993","l2":"2 32958  98.6886 144.7119 0009313  29.8116 330.3589 14.19577818940560"},{"id":"33320","name":"HJ-1A","type":"PAYLOAD","l1":"1 33320U 08041A   26204.57616289  .00001387  00000-0  17205-3 0  9999","l2":"2 33320  97.6709 189.0128 0019732  23.7353 336.4767 14.84063543963805"},{"id":"33321","name":"HJ-1B","type":"PAYLOAD","l1":"1 33321U 08041B   26204.62943322  .00000542  00000-0  71621-4 0  9992","l2":"2 33321  97.6546 192.1249 0037897  64.8078 295.7059 14.83376070963819"},{"id":"33408","name":"SHIJIAN 6 03A (SJ-6 03A)","type":"PAYLOAD","l1":"1 33408U 08053A   26204.58332162  .00006815  00000-0  34344-3 0  9999","l2":"2 33408  97.8397 239.1741 0009729 242.3579 117.6667 15.17476559968488"},{"id":"33409","name":"SHIJIAN 6 03B (SJ-6 03B)","type":"PAYLOAD","l1":"1 33409U 08053B   26204.61659273  .00001376  00000-0  10297-3 0  9997","l2":"2 33409  97.8563 225.1119 0017949 279.0721  80.8473 15.04387672968228"}]}