OBJECT_NAME,OBJECT_ID,EPOCH,MEAN_MOTION,ECCENTRICITY,INCLINATION,RA_OF_ASC_NODE,ARG_OF_PERICENTER,MEAN_ANOMALY,EPHEMERIS_TYPE,CLASSIFICATION_TYPE,NORAD_CAT_ID,ELEMENT_SET_NO,REV_AT_EPOCH,BSTAR,MEAN_MOTION_DOT,MEAN_MOTION_DDOT
IRS-P6 (RESOURCESAT-1),2003-046A,2026-07-23T14:45:07.549344,14.36172738,.00629906,98.1895,239.3427,232.1942,285.5904,0,U,28051,999,18575,.48684001E-4,.104E-5,0
SAUDISAT 2,2004-025F,2026-07-23T05:28:21.717696,14.56701476,.00245935,98.5526,205.1444,183.1701,176.9344,0,U,28371,999,17099,.58424333E-4,.212E-5,0
COSMOS 2407,2004-028A,2026-07-23T03:16:03.720288,13.76336989,.00398629,82.9583,48.2030,150.0834,330.9561,0,U,28380,999,10482,.30392166E-4,.45E-6,0
COSMOS 2414,2005-002A,2026-07-23T10:30:49.902048,13.87929103,.00391391,82.9495,16.2180,224.5922,135.2092,0,U,28521,999,8884,.54018226E-4,.8E-6,0
INMARSAT 4-F1,2005-009A,2026-07-23T10:01:38.550720,1.00273436,.0002876,5.2179,42.7945,77.2326,149.6392,0,U,28628,999,7803,0,.34E-6,0
HAMSAT (VO-52),2005-017B,2026-07-23T01:00:30.969504,15.10004154,.00173255,97.9904,228.6383,275.2296,84.6955,0,U,28650,999,15217,.2316667E-3,.3706E-4,0
NOAA 18,2005-018A,2026-07-23T13:41:57.587424,14.13735166,.00150371,98.8103,283.7184,50.8962,309.3545,0,U,28654,999,9145,.40228303E-4,.32E-6,0
SJ-7,2005-024A,2026-07-23T01:23:09.990528,15.22016030,.00136243,97.7277,235.1358,265.8795,94.0883,0,U,28737,999,15348,.34195526E-3,.7757E-4,0
CUBESAT XI-V,2005-043F,2026-07-21T08:59:40.719840,14.72712744,.0015344,98.3024,358.7230,97.2573,263.0378,0,U,28895,999,10678,.15413557E-3,.932E-5,0
CLOUDSAT,2006-016A,2026-07-23T13:37:01.719264,14.86456683,.00046631,98.3911,243.8723,200.3552,159.7476,0,U,29107,999,7991,.97833429E-4,.804E-5,0
CALIPSO,2006-016B,2026-07-23T14:13:04.674144,14.69411509,.00015796,98.4473,221.4983,108.0409,252.0968,0,U,29108,999,7840,.12736231E-3,.701E-5,0
HINODE (SOLAR-B),2006-041A,2026-07-23T00:32:00.409344,14.68665420,.00176842,98.0548,219.6469,169.5910,190.5665,0,U,29479,999,6013,.10227331E-3,.547E-5,0
METOP-A,2006-044A,2026-07-23T11:08:39.084000,14.76058682,.01726314,98.3353,312.3107,313.9985,122.5466,0,U,29499,999,3080,.99046701E-4,.8E-5,0
SHIJIAN-6 02B (SJ-6 02B),2006-046B,2026-07-23T14:25:53.982336,15.01448778,.00124428,97.7145,233.4336,305.5461,54.4603,0,U,29506,999,7620,.86989063E-4,.1064E-4,0
DMSP 5D-3 F17 (USA 191),2006-050A,2026-07-23T14:03:46.209600,14.14996790,.00092727,98.7392,210.4132,317.5244,42.5211,0,U,29522,999,1757,.36585972E-4,.27E-6,0
LAPAN-TUBSAT,2007-001A,2026-07-23T14:47:41.927136,14.85981373,.00135688,98.1364,204.6650,69.5883,290.6788,0,U,29709,999,5656,.54839205E-4,.422E-5,0
HAIYANG-1B,2007-010A,2026-07-23T08:43:13.986048,14.31034891,.00148257,98.3523,184.8103,93.6361,266.6519,0,U,31113,999,581,.46812927E-4,.82E-6,0
BEIDOU-2 M1,2007-011A,2026-07-20T15:29:45.981312,1.77349452,.00021108,50.9225,218.1656,328.6539,31.3669,0,U,31115,999,7674,0,.51E-6,0
CAPE-1,2007-012P,2026-07-23T03:58:44.045184,14.64969233,.0082459,98.4488,179.6311,319.7294,39.7819,0,U,31130,999,2362,.21259847E-3,.114E-4,0
CBERS 2B,2007-042A,2026-07-23T08:20:28.430592,14.41491536,.00299898,98.3932,148.3692,224.4307,251.8530,0,U,32062,999,98989,.63220634E-4,.163E-5,0
COSMO-SKYMED 2,2007-059A,2026-07-23T14:48:06.743808,14.82155720,.00014797,97.8898,27.6885,93.9786,266.1596,0,U,32376,999,740,.53857095E-4,.377E-5,0
CARTOSAT-2A,2008-021A,2026-07-23T13:45:45.655776,14.79285669,.00117591,97.7617,252.0367,1.3385,358.7856,0,U,32783,999,98418,.16254889E-3,.116E-4,0
CUTE-1.7+APD II (CO-65),2008-021C,2026-07-23T12:08:25.630944,15.09754568,.00069809,97.8296,186.6930,264.2054,95.8378,0,U,32785,999,99067,.33682272E-3,.5372E-4,0
SEEDS II (CO-66),2008-021J,2026-07-23T10:03:53.123040,15.33884906,.00039208,97.7535,204.0816,140.5450,219.6077,0,U,32791,999,99284,.58049637E-3,.18972E-3,0
YUBILEINY (RS30),2008-025A,2026-07-23T13:19:15.186432,12.43180774,.00188436,82.5067,332.8178,229.8223,130.1208,0,U,32953,999,82421,-.37416308E-3,-.42E-6,0
FENGYUN 3A,2008-026A,2026-07-23T13:23:05.492544,14.19577818,.00093132,98.6886,144.7119,29.8116,330.3589,0,U,32958,999,94056,.43044481E-4,.47E-6,0
HUANJING 1A (HJ-1A),2008-041A,2026-07-23T13:49:40.473696,14.84063543,.00197322,97.6709,189.0128,23.7353,336.4767,0,U,33320,999,96380,.17205352E-3,.1387E-4,0
HUANJING 1B (HJ-1B),2008-041B,2026-07-23T15:06:23.030208,14.83376070,.00378968,97.6546,192.1249,64.8078,295.7059,0,U,33321,999,96381,.71621055E-4,.542E-5,0
SHIJIAN-6 03A (SJ-6 03A),2008-053A,2026-07-23T13:59:58.987968,15.17476559,.00097293,97.8397,239.1741,242.3579,117.6667,0,U,33408,999,96848,.34344203E-3,.6815E-4,0
SHIJIAN-6 03B (SJ-6 03B),2008-053B,2026-07-23T14:47:53.611872,15.04387672,.00179494,97.8563,225.1119,279.0721,80.8473,0,U,33409,999,96822,.10296988E-3,.1376E-4,0
